MONOLITH                
1 49052U 21068A   26068.54548855  .00008348  00000+0  53656-3 0  9993
2 49052  37.0220 141.2957 0002679 131.6464 228.4511 15.08010119252226
STARLINK-4169           
1 53280U 22086AQ  26068.47728981 -.00000649  00000+0 -22708-4 0  9997
2 53280  53.2172 139.7492 0001438  98.4711 261.6444 15.08837092201802
