[{"OBJECT_NAME":"MONOLITH","OBJECT_ID":"2021-068A","EPOCH":"2026-03-09T13:05:30.210720","MEAN_MOTION":15.08010119,"ECCENTRICITY":0.00026796,"INCLINATION":37.022,"RA_OF_ASC_NODE":141.2957,"ARG_OF_PERICENTER":131.6464,"MEAN_ANOMALY":228.4511,"EPHEMERIS_TYPE":0,"CLASSIFICATION_TYPE":"U","NORAD_CAT_ID":49052,"ELEMENT_SET_NO":999,"REV_AT_EPOCH":25222,"BSTAR":0.00053655804,"MEAN_MOTION_DOT":8.348e-5,"MEAN_MOTION_DDOT":0},{"OBJECT_NAME":"STARLINK-4169","OBJECT_ID":"2022-086AQ","EPOCH":"2026-03-09T11:27:17.839584","MEAN_MOTION":15.08837092,"ECCENTRICITY":0.00014384,"INCLINATION":53.2172,"RA_OF_ASC_NODE":139.7492,"ARG_OF_PERICENTER":98.4711,"MEAN_ANOMALY":261.6444,"EPHEMERIS_TYPE":0,"CLASSIFICATION_TYPE":"U","NORAD_CAT_ID":53280,"ELEMENT_SET_NO":999,"REV_AT_EPOCH":20180,"BSTAR":-2.2707815e-5,"MEAN_MOTION_DOT":-6.49e-6,"MEAN_MOTION_DDOT":0}]
